TOMORROW-S2             
1 60485U 24149T   26068.75188364  .00008133  00000+0  27683-3 0  9990
2 60485  97.3857 150.0385 0001648 234.3331 125.7757 15.30674935 86869
STARLINK-34239          
1 64728U 25144E   26068.62417513  .00034550  00000+0  11737-2 0  9991
2 64728  53.1602 181.2192 0001334  77.2019 282.9131 15.30186319 39709
