[{"OBJECT_NAME":"TOMORROW-S2","OBJECT_ID":"2024-149T","EPOCH":"2026-03-09T18:02:42.746496","MEAN_MOTION":15.30674935,"ECCENTRICITY":0.0001648,"INCLINATION":97.3857,"RA_OF_ASC_NODE":150.0385,"ARG_OF_PERICENTER":234.3331,"MEAN_ANOMALY":125.7757,"EPHEMERIS_TYPE":0,"CLASSIFICATION_TYPE":"U","NORAD_CAT_ID":60485,"ELEMENT_SET_NO":999,"REV_AT_EPOCH":8686,"BSTAR":0.00027683033,"MEAN_MOTION_DOT":8.133e-5,"MEAN_MOTION_DDOT":0},{"OBJECT_NAME":"STARLINK-34239","OBJECT_ID":"2025-144E","EPOCH":"2026-03-09T14:58:48.731232","MEAN_MOTION":15.30186319,"ECCENTRICITY":0.0001334,"INCLINATION":53.1602,"RA_OF_ASC_NODE":181.2192,"ARG_OF_PERICENTER":77.2019,"MEAN_ANOMALY":282.9131,"EPHEMERIS_TYPE":0,"CLASSIFICATION_TYPE":"U","NORAD_CAT_ID":64728,"ELEMENT_SET_NO":999,"REV_AT_EPOCH":3970,"BSTAR":0.0011737,"MEAN_MOTION_DOT":0.0003455,"MEAN_MOTION_DDOT":0}]
